FENGYUN 1C DEB          
1 36142U 99025DRP 17343.88330856  .00000525  00000-0  51423-3 0  9990
2 36142  98.4114 229.8273 0235012 310.4765  47.6109 13.71461175500353
